INTELSAT 21 (IS-21)     
1 38749U 12045A   26156.13440082 -.00000273  00000+0  00000+0 0  9996
2 38749   0.0394  81.6281 0002117 357.9628 164.3704  1.00273786 50404
INTELSAT 23 (IS-23)     
1 38867U 12057A   26156.19120586 -.00000272  00000+0  00000+0 0  9999
2 38867   0.0117 307.8410 0000265 187.9542 133.6532  1.00268022 49833
FM-6                    
1 39360U 13058A   26155.61598716 -.00000001  00000+0  00000+0 0  9990
2 39360   0.0096  36.6997 0002120 147.5696 174.2528  1.00251470 45942
INTELSAT 30 (IS-30)     
1 40271U 14062A   26155.90274478 -.00000138  00000+0  00000+0 0  9998
2 40271   0.0264  48.5331 0001113 350.9711  83.7621  1.00268318  6679
DIRECTV 14              
1 40333U 14078B   26155.90187811 -.00000113  00000+0  00000+0 0  9991
2 40333   0.0095 324.1263 0000256 199.1564 315.5074  1.00272349 41927
DIRECTV 15              
1 40663U 15026A   26155.97249913 -.00000090  00000+0  00000+0 0  9994
2 40663   0.0173   7.9959 0000127 267.6092 225.0151  1.00272632 40343
SKY MEXICO-1            
1 40664U 15026B   26156.12445529 -.00000222  00000+0  00000+0 0  9991
2 40664   0.0163   7.4689 0002320  82.1960 129.9020  1.00272705 40336
INTELSAT 34 (IS-34)     
1 40874U 15039A   26155.91054483 -.00000273  00000+0  00000+0 0  9995
2 40874   0.0092 325.9423 0000276  62.8751 136.8315  1.00269697 39513
INTELSAT 31 (IS-31)     
1 41581U 16035A   26156.18524553 -.00000139  00000+0  00000+0 0  9999
2 41581   0.0141 264.6705 0000845 321.7238 358.8749  1.00272351 36565
INTELSAT 36 (IS-36)     
1 41747U 16053A   26155.83149853 -.00000012  00000+0  00000+0 0  9990
2 41747   0.0136  12.5282 0001599 330.5945 277.9825  1.00270778 35839
INTELSAT 32E (IS-32E)   
1 41945U 17007B   26155.48523816 -.00000257  00000+0  00000+0 0  9997
2 41945   0.0180 347.8046 0000454  15.9771  20.6539  1.00272952 34098
INTELSAT 35E (IS-35E)   
1 42818U 17041A   26156.19716330 -.00000225  00000+0  00000+0 0  9994
2 42818   0.0154  13.7640 0001976  59.6322 216.7268  1.00273862 32697
INTELSAT 37E (IS-37E)   
1 42950U 17059A   26156.13191845 -.00000128  00000+0  00000+0 0  9994
2 42950   0.0157  10.5088 0002613  79.7007 192.8647  1.00271990 31942
AZERSPACE 2 (IS-38)     
1 43632U 18074A   26155.50274490  .00000148  00000+0  00000+0 0  9999
2 43632   0.0013 357.4289 0001654  67.8132  53.8049  1.00272076 28324
HORIZONS-3E             
1 43633U 18074B   26155.61572255 -.00000019  00000+0  00000+0 0  9990
2 43633   0.0181 149.5538 0000750 123.5060  10.6575  1.00270803 28213
AT&T T-16               
1 44333U 19034A   26155.97284580 -.00000103  00000+0  00000+0 0  9999
2 44333   0.0247  65.3119 0000373 219.6139 217.8574  1.00272225 25519
INTELSAT 39 (IS-39)     
1 44476U 19049B   26155.64258480  .00000045  00000+0  00000+0 0  9991
2 44476   0.0188 328.9935 0000582 359.4045 217.9725  1.00271423 25008
GALAXY 30 (G-30)        
1 46114U 20056C   26156.17405941  .00000049  00000+0  00000+0 0  9991
2 46114   0.0183 330.2604 0002406 100.9144 120.0823  1.00272487 21177
GALAXY 33 (G-33)        
1 54026U 22128A   26156.15411397  .00000091  00000+0  00000+0 0  9991
2 54026   0.0168  36.6297 0001992  37.1779 102.2771  1.00271741 13627
GALAXY 34 (G-34)        
1 54027U 22128B   26155.96729911  .00000071  00000+0  00000+0 0  9992
2 54027   0.0137   6.5753 0001971  86.4583  19.6129  1.00273793 13799
GALAXY 31 (G-31)        
1 54243U 22153A   26156.11148963  .00000025  00000+0  00000+0 0  9999
2 54243   0.0130  55.2266 0001471  19.3691  98.0902  1.00272123  7016
GALAXY 32 (G-32)        
1 54244U 22153B   26154.83402102 -.00000162  00000+0  00000+0 0  9998
2 54244   0.0097 353.7552 0002383  46.7034  61.0732  1.00270822 13013
GALAXY 35 (G-35)        
1 54741U 22170A   26156.04575125 -.00000150  00000+0  00000+0 0  9997
2 54741   0.0161  33.4009 0002229  45.5750  97.8850  1.00272255 12779
GALAXY 36 (G-36)        
1 54742U 22170B   26156.04415037 -.00000173  00000+0  00000+0 0  9998
2 54742   0.0166 245.1596 0002876 195.6515  99.5737  1.00272495 12658
GALAXY 37 (G-37)        
1 57493U 23112A   26155.96773244  .00000060  00000+0  00000+0 0  9992
2 57493   0.0166 319.4800 0002233 117.5390  37.7833  1.00273223 10422
